0 COSMOS 724
1 07727U 75025A   13281.86870987 -.00000058  00000-0  20205-4 0  1067
2 07727 065.5906 211.5113 0045668 101.7009 322.4565 13.98828284967706
0 COSMOS 724
1 07727U 75025A   13283.08832542 -.00000075  00000-0  84508-5 0  1075
2 07727 065.5906 208.3455 0045668 100.9800 344.3300 13.98828584967870
0 COSMOS 724
1 07727U 75025A   13284.16412927 -.00000097  00000-0 -61810-5 0  1083
2 07727 065.5907 205.5529 0045655 100.3519 001.9720 13.98828875968022
0 COSMOS 724
1 07727U 75025A   13286.31577484 -.00000058  00000-0  20379-4 0  1105
2 07727 065.5906 199.9676 0045615 099.0961 037.4522 13.98828585968326
0 COSMOS 724
1 07727U 75025A   13287.31685257 -.00000008  00000-0  54800-4 0  1116
2 07727 065.5905 197.3690 0045603 098.5187 038.7786 13.98828252968466
0 COSMOS 724
1 07727U 75025A   13289.17829163  .00000007  00000-0  65023-4 0  1126
2 07727 065.5901 192.5373 0045585 097.4521 052.7867 13.98828330968728
0 COSMOS 724
1 07727U 75025A   13290.18132588 -.00000032  00000-0  38057-4 0  1134
2 07727 065.5899 189.9337 0045581 096.8656 063.9687 13.98828816968860
0 COSMOS 724
1 07727U 75025A   13290.79297406  .00000032  00000-0  22045-4 0  1142
2 07727 065.5903 188.3509 0046230 098.0084 262.6710 13.98829058968955
0 COSMOS 724
1 07727U 75025A   13291.18240471 -.00000068  00000-0  13470-4 0  1159
2 07727 065.5898 187.3352 0045572 096.2769 065.3072 13.98829308969005
0 COSMOS 724
1 07727U 75025A   13292.25008348 -.00000088  00000-0  83139-7 0  1168
2 07727 065.5896 184.5636 0045569 095.6636 042.0247 13.98829468969158
0 COSMOS 724
1 07727U 75025A   13293.25093252 -.00000068  00000-0  13767-4 0  1173
2 07727 065.5895 181.9656 0045572 095.0942 042.1923 13.98829362969298
0 COSMOS 724
1 07727U 75025A   13294.80468628 -.00000044  00000-0  29666-4 0  1188
2 07727 065.5894 177.9322 0045583 094.1918 306.7480 13.98829178969514
0 COSMOS 724
1 07727U 75025A   13295.81048152 -.00000050  00000-0  25833-4 0  1196
2 07727 065.5893 175.3214 0045572 093.6205 331.8226 13.98829279969650
